NORAD_CAT_ID,OBJECT_NAME,OBJECT_TYPE,EPOCH,MEAN_MOTION,ECCENTRICITY,INCLINATION,RA_OF_ASC_NODE,ARG_OF_PERICENTER,MEAN_ANOMALY,BSTAR,MEAN_MOTION_DOT,MEAN_MOTION_DDOT,TLE_LINE0,TLE_LINE1,TLE_LINE2,SEMIMAJOR_AXIS,PERIOD,APOGEE,PERIGEE,DECAYED
54204.0,STARLINK-5241,PAYLOAD,2023-05-17 16:50:03,15.08839453,0.0001131,53.2183,284.0205,91.1855,268.9266,2.6364e-05,1.32e-06,0.0,0 STARLINK-5241,1 54204U 22141AZ  23137.70142591  .00000132  00000-0  26364-4 0  9991,2 54204  53.2183 284.0205 0001131  91.1855 268.9266 15.08839453 30968,6917.882,95.438,540.529,538.965,0.0
54204.0,STARLINK-5241,PAYLOAD,2023-05-18 13:30:04,15.08749419,0.0001502,53.217,280.1562,82.7941,277.3222,0.0011663,0.00018276,0.0,0 STARLINK-5241,1 54204U 22141AZ  23138.56255174  .00018276  00000-0  11663-2 0  9990,2 54204  53.2170 280.1562 0001502  82.7941 277.3222 15.08749419 31094,6918.157,95.443,541.061,538.983,0.0
54204.0,STARLINK-5241,PAYLOAD,2023-05-18 16:40:50,15.08847273,0.0001114,53.217,279.5618,104.8392,255.2724,-4.5693e-05,-1.015e-05,0.0,0 STARLINK-5241,1 54204U 22141AZ  23138.69502549 -.00001015  00000-0 -45693-4 0  9992,2 54204  53.2170 279.5618 0001114 104.8392 255.2724 15.08847273 31340,6917.858,95.437,540.494,538.953,0.0
54204.0,STARLINK-5241,PAYLOAD,2023-05-18 18:16:13,15.08845378,0.0001109,53.2166,279.2639,101.2637,258.848,5.7583e-06,-1.96e-06,0.0,0 STARLINK-5241,1 54204U 22141AZ  23138.76126474 -.00000196  00000-0  57583-5 0  9999,2 54204  53.2166 279.2639 0001109 101.2637 258.8480 15.08845378 31120,6917.864,95.437,540.496,538.962,0.0
54204.0,STARLINK-5241,PAYLOAD,2023-05-19 02:13:09,15.08836734,0.0001022,53.2161,277.776,95.1201,264.9908,6.0567e-05,6.76e-06,0.0,0 STARLINK-5241,1 54204U 22141AZ  23139.09246833  .00000676  00000-0  60567-4 0  9995,2 54204  53.2161 277.7760 0001022  95.1201 264.9908 15.08836734 31405,6917.89,95.438,540.462,539.048,0.0
54204.0,STARLINK-5241,PAYLOAD,2023-05-19 08:34:41,15.08836864,9.94e-05,53.2162,276.5865,95.8099,264.3006,5.9053e-05,6.52e-06,0.0,0 STARLINK-5241,1 54204U 22141AZ  23139.35742893  .00000652  00000-0  59053-4 0  9993,2 54204  53.2162 276.5865 0000994  95.8099 264.3006 15.08836864 31214,6917.89,95.438,540.443,539.067,0.0
54204.0,STARLINK-5241,PAYLOAD,2023-05-20 16:22:22,15.08862084,8.63e-05,53.216,270.6388,105.3835,254.7253,0.0002012,2.918e-05,0.0,0 STARLINK-5241,1 54204U 22141AZ  23140.68220755  .00002918  00000-0  20120-3 0  9998,2 54204  53.2160 270.6388 0000863 105.3835 254.7253 15.08862084 31644,6917.813,95.436,540.275,539.081,0.0
54204.0,STARLINK-5241,PAYLOAD,2023-05-21 01:54:42,15.08842089,0.0001252,53.2169,268.854,72.8475,287.2654,6.5887e-05,7.61e-06,0.0,0 STARLINK-5241,1 54204U 22141AZ  23141.07966421  .00000761  00000-0  65887-4 0  9993,2 54204  53.2169 268.8540 0001252  72.8475 287.2654 15.08842089 31709,6917.874,95.437,540.605,538.873,0.0
54204.0,STARLINK-5241,PAYLOAD,2023-05-21 08:16:15,15.08839561,0.0001216,53.2162,267.6682,71.2535,288.859,2.4882e-05,1.08e-06,0.0,0 STARLINK-5241,1 54204U 22141AZ  23141.34462723  .00000108  00000-0  24882-4 0  9994,2 54204  53.2162 267.6682 0001216  71.2535 288.8590 15.08839561 31512,6917.882,95.438,540.588,538.906,0.0
54204.0,STARLINK-5241,PAYLOAD,2023-05-21 14:37:48,15.08832125,0.0001162,53.2169,266.477,68.7955,291.3161,-1.2168e-05,-4.81e-06,0.0,0 STARLINK-5241,1 54204U 22141AZ  23141.60959440 -.00000481  00000-0 -12168-4 0  9990,2 54204  53.2169 266.4770 0001162  68.7955 291.3161 15.08832125 31782,6917.904,95.438,540.573,538.966,0.0
54204.0,STARLINK-5241,PAYLOAD,2023-05-22 01:45:30,15.08840225,0.0001219,53.2182,264.3957,67.2164,292.8957,-1.2817e-05,-4.92e-06,0.0,0 STARLINK-5241,1 54204U 22141AZ  23142.07327088 -.00000492  00000-0 -12817-4 0  9992,2 54204  53.2182 264.3957 0001219  67.2164 292.8957 15.08840225 31857,6917.88,95.438,540.588,538.901,0.0
54204.0,STARLINK-5241,PAYLOAD,2023-05-22 08:07:02,15.08842845,0.0001083,53.2175,263.2057,66.468,293.6425,2.1946e-05,6.2e-07,0.0,0 STARLINK-5241,1 54204U 22141AZ  23142.33822807  .00000062  00000-0  21946-4 0  9994,2 54204  53.2175 263.2057 0001083  66.4680 293.6425 15.08842845 31669,6917.872,95.437,540.486,538.987,0.0
54204.0,STARLINK-5241,PAYLOAD,2023-05-22 14:28:35,15.08845689,0.0001183,53.2164,262.0163,64.2945,295.817,1.3522e-06,-2.66e-06,0.0,0 STARLINK-5241,1 54204U 22141AZ  23142.60318668 -.00000266  00000-0  13522-5 0  9998,2 54204  53.2164 262.0163 0001183  64.2945 295.8170 15.08845689 31708,6917.863,95.437,540.546,538.91,0.0
54204.0,STARLINK-5241,PAYLOAD,2023-05-23 11:08:36,15.08835679,0.000129,53.2159,258.1503,58.9919,301.1199,0.00019321,2.788e-05,0.0,0 STARLINK-5241,1 54204U 22141AZ  23143.46431444  .00002788  00000-0  19321-3 0  9992,2 54204  53.2159 258.1503 0001290  58.9919 301.1199 15.08835679 32066,6917.894,95.438,540.651,538.866,0.0
54204.0,STARLINK-5241,PAYLOAD,2023-05-23 14:19:22,15.08838098,0.0001224,53.2161,257.5553,61.5397,298.5719,0.00018622,2.677e-05,0.0,0 STARLINK-5241,1 54204U 22141AZ  23143.59679352  .00002677  00000-0  18622-3 0  9998,2 54204  53.2161 257.5553 0001224  61.5397 298.5719 15.08838098 31855,6917.886,95.438,540.598,538.904,0.0
54204.0,STARLINK-5241,PAYLOAD,2023-05-24 07:48:37,15.08840421,0.0001251,53.216,254.2843,65.3391,294.7732,8.6729e-05,1.093e-05,0.0,0 STARLINK-5241,1 54204U 22141AZ  23144.32543310  .00001093  00000-0  86729-4 0  9999,2 54204  53.2160 254.2843 0001251  65.3391 294.7732 15.08840421 31964,6917.879,95.438,540.61,538.879,0.0
54204.0,STARLINK-5241,PAYLOAD,2023-05-25 14:00:56,15.0884061,0.000111,53.2181,248.6352,97.492,262.6199,0.00010293,1.351e-05,0.0,0 STARLINK-5241,1 54204U 22141AZ  23145.58399195  .00001351  00000-0  10293-3 0  9997,2 54204  53.2181 248.6352 0001110  97.4920 262.6199 15.08840610 32150,6917.879,95.438,540.511,538.976,0.0
54204.0,STARLINK-5241,PAYLOAD,2023-05-26 13:51:44,15.08834856,0.0001045,53.217,244.1732,90.1496,269.9616,2.3751e-05,9e-07,0.0,0 STARLINK-5241,1 54204U 22141AZ  23146.57759967  .00000090  00000-0  23751-4 0  9997,2 54204  53.2170 244.1732 0001045  90.1496 269.9616 15.08834856 32302,6917.896,95.438,540.484,539.038,0.0
54204.0,STARLINK-5241,PAYLOAD,2023-05-27 10:31:44,15.08849632,8.6e-05,53.2165,240.308,82.3989,277.7101,-3.969e-05,-9.19e-06,0.0,0 STARLINK-5241,1 54204U 22141AZ  23147.43871441 -.00000919  00000-0 -39690-4 0  9996,2 54204  53.2165 240.3080 0000860  82.3989 277.7101 15.08849632 32667,6917.851,95.437,540.311,539.121,0.0
54204.0,STARLINK-5241,PAYLOAD,2023-05-27 13:42:31,15.08842124,0.0001037,53.2166,239.7125,82.4279,277.6831,0.00012436,1.692e-05,0.0,0 STARLINK-5241,1 54204U 22141AZ  23147.57119411  .00001692  00000-0  12436-3 0  9998,2 54204  53.2166 239.7125 0001037  82.4279 277.6831 15.08842124 32455,6917.874,95.437,540.456,539.022,0.0
54204.0,STARLINK-5241,PAYLOAD,2023-05-28 10:22:32,15.08841198,9.53e-05,53.2162,235.8478,82.1867,277.9233,0.00011221,1.499e-05,0.0,0 STARLINK-5241,1 54204U 22141AZ  23148.43231590  .00001499  00000-0  11221-3 0  9993,2 54204  53.2162 235.8478 0000953  82.1867 277.9233 15.08841198 32814,6917.877,95.437,540.401,539.082,0.0
54204.0,STARLINK-5241,PAYLOAD,2023-05-28 13:33:18,15.08845289,0.0001004,53.2165,235.2526,80.7443,279.3663,0.00014737,2.059e-05,0.0,0 STARLINK-5241,1 54204U 22141AZ  23148.56479287  .00002059  00000-0  14737-3 0  9992,2 54204  53.2165 235.2526 0001004  80.7443 279.3663 15.08845289 32602,6917.864,95.437,540.424,539.035,0.0
54204.0,STARLINK-5241,PAYLOAD,2023-05-29 11:48:41,15.08847181,0.0001045,53.2162,231.0899,82.3574,277.7537,4.7059e-05,4.61e-06,0.0,0 STARLINK-5241,1 54204U 22141AZ  23149.49215126  .00000461  00000-0  47059-4 0  9994,2 54204  53.2162 231.0899 0001045  82.3574 277.7537 15.08847181 32744,6917.858,95.437,540.446,539.001,0.0
54204.0,STARLINK-5241,PAYLOAD,2023-05-29 14:59:27,15.08850299,0.0001033,53.2165,230.4934,92.181,267.93,6.6173e-05,7.66e-06,0.0,0 STARLINK-5241,1 54204U 22141AZ  23149.62462742  .00000766  00000-0  66173-4 0  9993,2 54204  53.2165 230.4934 0001033  92.1810 267.9300 15.08850299 32999,6917.849,95.437,540.429,538.999,0.0
54204.0,STARLINK-5241,PAYLOAD,2023-05-29 22:56:23,15.08842242,0.0001014,53.2163,229.0048,93.8049,266.3059,2.0845e-05,4.4e-07,0.0,0 STARLINK-5241,1 54204U 22141AZ  23149.95583212  .00000044  00000-0  20845-4 0  9990,2 54204  53.2163 229.0048 0001014  93.8049 266.3059 15.08842242 33048,6917.874,95.437,540.44,539.037,0.0
54204.0,STARLINK-5241,PAYLOAD,2023-05-30 11:39:29,15.08839772,0.0001157,53.217,226.6267,113.7335,246.3779,-8.2107e-05,-1.594e-05,0.0,0 STARLINK-5241,1 54204U 22141AZ  23150.48575683 -.00001594  00000-0 -82107-4 0  9995,2 54204  53.2170 226.6267 0001157 113.7335 246.3779 15.08839772 32893,6917.881,95.438,540.546,538.946,0.0
54204.0,STARLINK-5241,PAYLOAD,2023-05-31 11:30:16,15.08842525,0.0001136,53.2169,222.1684,102.2409,257.871,7.4176e-06,-1.7e-06,0.0,0 STARLINK-5241,1 54204U 22141AZ  23151.47935353 -.00000170  00000-0  74176-5 0  9995,2 54204  53.2169 222.1684 0001136 102.2409 257.8710 15.08842525 33047,6917.873,95.437,540.524,538.952,0.0
54204.0,STARLINK-5241,PAYLOAD,2023-06-01 09:45:40,15.08838436,0.0001116,53.2165,218.0057,91.3704,268.7416,0.0001089,1.446e-05,0.0,0 STARLINK-5241,1 54204U 22141AZ  23152.40671490  .00001446  00000-0  10890-3 0  9995,2 54204  53.2165 218.0057 0001116  91.3704 268.7416 15.08838436 33180,6917.885,95.438,540.522,538.978,0.0
54204.0,STARLINK-5241,PAYLOAD,2023-06-01 20:53:22,15.08838522,0.0001091,53.2161,215.9234,79.1895,280.922,7.9492e-05,9.77e-06,0.0,0 STARLINK-5241,1 54204U 22141AZ  23152.87039674  .00000977  00000-0  79492-4 0  9990,2 54204  53.2161 215.9234 0001091  79.1895 280.9220 15.08838522 33484,6917.885,95.438,540.505,538.995,0.0
54204.0,STARLINK-5241,PAYLOAD,2023-06-02 11:11:50,15.08835199,0.0001143,53.2168,213.2487,95.4401,264.6722,9.9759e-06,-1.29e-06,0.0,0 STARLINK-5241,1 54204U 22141AZ  23153.46656239 -.00000129  00000-0  99759-5 0  9997,2 54204  53.2168 213.2487 0001143  95.4401 264.6722 15.08835199 33577,6917.895,95.438,540.551,538.969,0.0
